1 56488U 23064AS  25334.44177330 -.00000131  00000+0 -32125-5 0  9996
2 56488  69.9995 354.7972 0003048 269.7617  90.3193 14.98332674141367
